STARLINK-30791          
1 58177U 23167C   26067.59888936 -.00001971  00000+0 -63840-4 0  9998
2 58177  42.9987 149.0936 0001321 264.8741  95.1960 15.26736371130825
STRIX-4                 
1 60352U 24137A   26068.65404516  .00020530  00000+0  71820-3 0  9996
2 60352  43.0134 129.8162 0016840   5.2738 354.8289 15.29026223 88766
